DUPLEX                  
1 66906U 98067XS  26016.05903276  .00019299  00000+0  31582-3 0  9995
2 66906  51.6323 331.9628 0002257  18.8611 341.2462 15.52518513  6949
1998-067XT              
1 66907U 98067XT  26016.26173691  .00059369  00000+0  82216-3 0  9991
2 66907  51.6308 330.3167 0003593  68.9751 291.1625 15.56507581  6984
1998-067XU              
1 66908U 98067XU  26016.13245329  .00051362  00000+0  71494-3 0  9997
2 66908  51.6315 330.9516 0003484  61.9734 298.1610 15.56431608  6965
SILVERSAT               
1 66909U 98067XV  26016.05914942  .00061091  00000+0  82479-3 0  9998
2 66909  51.6312 331.2132 0003744  73.7509 286.3894 15.57178591  6953
1998-067XW              
1 66910U 98067XW  26016.06096487  .00053280  00000+0  73182-3 0  9998
2 66910  51.6296 331.2236 0002572  47.3371 312.7837 15.56777492  6958
1998-067XX              
1 66911U 98067XX  26016.23725786  .00076138  00000+0  99308-3 0  9994
2 66911  51.6292 330.1514 0002595  71.5242 288.6032 15.58011400  6975
1998-067XY              
1 66912U 98067XY  26016.15325266  .00043784  00000+0  64364-3 0  9990
2 66912  51.6309 331.0917 0003395  49.2721 310.8565 15.55019452  6954
