CCSDS_OMM_VERS = 2.0
CREATION_DATE  = 
ORIGINATOR     = 

OBJECT_NAME    = DUPLEX
OBJECT_ID      = 1998-067XS
CENTER_NAME    = EARTH
REF_FRAME      = TEME
TIME_SYSTEM    = UTC
MEAN_ELEMENT_THEORY = SGP/SGP4

EPOCH          = 2026-01-16T01:25:00.430464
MEAN_MOTION    = 15.52518513
ECCENTRICITY   = .00022571
INCLINATION    = 51.6323
RA_OF_ASC_NODE = 331.9628
ARG_OF_PERICENTER = 18.8611
MEAN_ANOMALY   = 341.2462

EPHEMERIS_TYPE = 0
CLASSIFICATION_TYPE = U
NORAD_CAT_ID   = 66906
ELEMENT_SET_NO = 999
REV_AT_EPOCH   = 694
BSTAR          = .31582442E-3
MEAN_MOTION_DOT = .19299E-3
MEAN_MOTION_DDOT = 0

CCSDS_OMM_VERS = 2.0
CREATION_DATE  = 
ORIGINATOR     = 

OBJECT_NAME    = 1998-067XT
OBJECT_ID      = 1998-067XT
CENTER_NAME    = EARTH
REF_FRAME      = TEME
TIME_SYSTEM    = UTC
MEAN_ELEMENT_THEORY = SGP/SGP4

EPOCH          = 2026-01-16T06:16:54.069024
MEAN_MOTION    = 15.56507581
ECCENTRICITY   = .00035933
INCLINATION    = 51.6308
RA_OF_ASC_NODE = 330.3167
ARG_OF_PERICENTER = 68.9751
MEAN_ANOMALY   = 291.1625

EPHEMERIS_TYPE = 0
CLASSIFICATION_TYPE = U
NORAD_CAT_ID   = 66907
ELEMENT_SET_NO = 999
REV_AT_EPOCH   = 698
BSTAR          = .82215874E-3
MEAN_MOTION_DOT = .59369E-3
MEAN_MOTION_DDOT = 0

CCSDS_OMM_VERS = 2.0
CREATION_DATE  = 
ORIGINATOR     = 

OBJECT_NAME    = 1998-067XU
OBJECT_ID      = 1998-067XU
CENTER_NAME    = EARTH
REF_FRAME      = TEME
TIME_SYSTEM    = UTC
MEAN_ELEMENT_THEORY = SGP/SGP4

EPOCH          = 2026-01-16T03:10:43.964256
MEAN_MOTION    = 15.56431608
ECCENTRICITY   = .00034841
INCLINATION    = 51.6315
RA_OF_ASC_NODE = 330.9516
ARG_OF_PERICENTER = 61.9734
MEAN_ANOMALY   = 298.1610

EPHEMERIS_TYPE = 0
CLASSIFICATION_TYPE = U
NORAD_CAT_ID   = 66908
ELEMENT_SET_NO = 999
REV_AT_EPOCH   = 696
BSTAR          = .71493501E-3
MEAN_MOTION_DOT = .51362E-3
MEAN_MOTION_DDOT = 0

CCSDS_OMM_VERS = 2.0
CREATION_DATE  = 
ORIGINATOR     = 

OBJECT_NAME    = SILVERSAT
OBJECT_ID      = 1998-067XV
CENTER_NAME    = EARTH
REF_FRAME      = TEME
TIME_SYSTEM    = UTC
MEAN_ELEMENT_THEORY = SGP/SGP4

EPOCH          = 2026-01-16T01:25:10.509888
MEAN_MOTION    = 15.57178591
ECCENTRICITY   = .00037446
INCLINATION    = 51.6312
RA_OF_ASC_NODE = 331.2132
ARG_OF_PERICENTER = 73.7509
MEAN_ANOMALY   = 286.3894

EPHEMERIS_TYPE = 0
CLASSIFICATION_TYPE = U
NORAD_CAT_ID   = 66909
ELEMENT_SET_NO = 999
REV_AT_EPOCH   = 695
BSTAR          = .82478561E-3
MEAN_MOTION_DOT = .61091E-3
MEAN_MOTION_DDOT = 0

CCSDS_OMM_VERS = 2.0
CREATION_DATE  = 
ORIGINATOR     = 

OBJECT_NAME    = 1998-067XW
OBJECT_ID      = 1998-067XW
CENTER_NAME    = EARTH
REF_FRAME      = TEME
TIME_SYSTEM    = UTC
MEAN_ELEMENT_THEORY = SGP/SGP4

EPOCH          = 2026-01-16T01:27:47.364768
MEAN_MOTION    = 15.56777492
ECCENTRICITY   = .00025721
INCLINATION    = 51.6296
RA_OF_ASC_NODE = 331.2236
ARG_OF_PERICENTER = 47.3371
MEAN_ANOMALY   = 312.7837

EPHEMERIS_TYPE = 0
CLASSIFICATION_TYPE = U
NORAD_CAT_ID   = 66910
ELEMENT_SET_NO = 999
REV_AT_EPOCH   = 695
BSTAR          = .73182018E-3
MEAN_MOTION_DOT = .5328E-3
MEAN_MOTION_DDOT = 0

CCSDS_OMM_VERS = 2.0
CREATION_DATE  = 
ORIGINATOR     = 

OBJECT_NAME    = 1998-067XX
OBJECT_ID      = 1998-067XX
CENTER_NAME    = EARTH
REF_FRAME      = TEME
TIME_SYSTEM    = UTC
MEAN_ELEMENT_THEORY = SGP/SGP4

EPOCH          = 2026-01-16T05:41:39.079104
MEAN_MOTION    = 15.58011400
ECCENTRICITY   = .00025952
INCLINATION    = 51.6292
RA_OF_ASC_NODE = 330.1514
ARG_OF_PERICENTER = 71.5242
MEAN_ANOMALY   = 288.6032

EPHEMERIS_TYPE = 0
CLASSIFICATION_TYPE = U
NORAD_CAT_ID   = 66911
ELEMENT_SET_NO = 999
REV_AT_EPOCH   = 697
BSTAR          = .99308044E-3
MEAN_MOTION_DOT = .76138E-3
MEAN_MOTION_DDOT = 0

CCSDS_OMM_VERS = 2.0
CREATION_DATE  = 
ORIGINATOR     = 

OBJECT_NAME    = 1998-067XY
OBJECT_ID      = 1998-067XY
CENTER_NAME    = EARTH
REF_FRAME      = TEME
TIME_SYSTEM    = UTC
MEAN_ELEMENT_THEORY = SGP/SGP4

EPOCH          = 2026-01-16T03:40:41.029824
MEAN_MOTION    = 15.55019452
ECCENTRICITY   = .00033956
INCLINATION    = 51.6309
RA_OF_ASC_NODE = 331.0917
ARG_OF_PERICENTER = 49.2721
MEAN_ANOMALY   = 310.8565

EPHEMERIS_TYPE = 0
CLASSIFICATION_TYPE = U
NORAD_CAT_ID   = 66912
ELEMENT_SET_NO = 999
REV_AT_EPOCH   = 695
BSTAR          = .64364138E-3
MEAN_MOTION_DOT = .43784E-3
MEAN_MOTION_DDOT = 0

